UNKNOWN                 
1 83903U          25359.90072082  .00000121  00000+0  00000+0 0  9997
2 83903   6.1512 290.5041 0123611 251.9924 284.4041  0.99112291 43797
UNKNOWN                 
1 83970U          26014.06738960  .00004790  00000+0  49157-2 0  9996
2 83970  18.2977 182.4337 5070007 212.4015 102.7031  5.32545134197930
UNKNOWN                 
1 84006U          26018.63886962  .00000059  00000+0  00000+0 0  9995
2 84006  22.4045 170.0076 6157293  73.6607 342.6241  2.16233529 85020
UNKNOWN                 
1 84188U          26019.65588816  .00178951  00000+0  74914-1 0  9990
2 84188  65.0543 224.4552 3641257  14.5599 353.6813  7.84499452 44198
UNKNOWN                 
1 84232U          26019.27448124  .00020474  00000+0  16754-1 0  9999
2 84232  20.3107 252.5071 6553043 103.4393 332.4449  3.18359520105882
UNKNOWN                 
1 84236U          26008.25446343  .00000478  00000+0  37931-2 0  9993
2 84236   9.4181 323.3148 6893720 117.7230 326.7545  2.62563797114676
UNKNOWN                 
1 84292U          26017.52809114  .00003816  00000+0  21266-2 0  9997
2 84292  23.8229 110.7784 4562726 326.2180  11.6771  6.21787762230290
UNKNOWN                 
1 84406U          26008.21880314  .00000785  00000+0  43231-2 0  9999
2 84406 101.7141 157.7019 0042055 340.3466 199.3092 12.67381377 52646
UNKNOWN                 
1 84407U          26016.92332814  .00000260  00000+0  12077-1 0  9995
2 84407  19.4644 312.1530 7202436  80.6851 347.5491  2.05777016 76595
UNKNOWN                 
1 84575U          26018.68165342 -.00000262  00000+0 -11972-1 0  9993
2 84575  18.0546 146.3005 7104505  44.8612 353.9722  2.19881415 66272
UNKNOWN                 
1 84932U          26019.61350831  .00000954  00000+0  74541-2 0  9991
2 84932   2.0280 221.2170 6578204  98.6643 186.1890  3.00025903132914
UNKNOWN                 
1 85004U          26019.42033354  .00001180  00000+0  37406-3 0  9991
2 85004  98.4261 354.9088 0048038  50.0461 104.4337 14.41185631636321
UNKNOWN                 
1 85010U          26019.10239376  .00000896  00000+0  97859-3 0  9996
2 85010  99.2489 244.8715 0024928 154.9690 356.7290 13.75140444609052
UNKNOWN                 
1 85015U          26019.12568878  .00000477  00000+0  10039-3 0  9995
2 85015  74.0503 326.6569 0016155 227.5009 132.4794 14.62341849648077
UNKNOWN                 
1 85023U          26019.03683704  .00025680  00000+0  36712-2 0  9998
2 85023  99.8471  47.5825 0002368 191.0608 198.3543 14.76628801634338
UNKNOWN                 
1 85027U          26017.67612658  .00000050  00000+0  12258-3 0  9994
2 85027  66.0423  13.5055 0174126 171.6916 188.7100 13.74262612609550
UNKNOWN                 
1 85047U          26019.65466610  .00011296  00000+0  17880-1 0  9999
2 85047 102.1732 358.0350 0152517 300.7432  57.8745 13.45341482581753
UNKNOWN                 
1 85061U          26017.92634602  .00003374  00000+0  13612-1 0  9998
2 85061 102.3958  10.0327 0257431 119.2327 301.9007 12.77256592560401
UNKNOWN                 
1 85100U          26019.10208434  .00000335  00000+0  11287-3 0  9996
2 85100  74.0456 153.7121 0012380   7.5646 170.7293 14.40744289638722
UNKNOWN                 
1 85106U          26018.09006215  .00000577  00000+0  67820-3 0  9994
2 85106 100.0540 125.7384 0009272 276.6767 259.5482 13.72952493608052
UNKNOWN                 
1 85151U          26019.44234790  .00023044  00000+0  30171-2 0  9997
2 85151  98.4023 250.1851 0010636  17.9038 342.2545 14.80340744485102
UNKNOWN                 
1 85210U          26019.35187865  .00000571  00000+0  57910-3 0  9994
2 85210  99.8569 166.3716 0218577 217.8798 172.8918 13.71608990607313
UNKNOWN                 
1 85217U          26019.52528003  .00001616  00000+0  43423-3 0  9998
2 85217  98.0281 116.4531 0207380  14.5037 346.1981 14.37376244633289
UNKNOWN                 
1 85237U          26015.32140015  .00001398  00000+0  31130-3 0  9996
2 85237  65.5320 126.7595 0514347  12.2735 349.0325 14.01211359613055
UNKNOWN                 
1 85238U          26016.59150522  .00000009  00000+0  42162-4 0  9997
2 85238  99.0653 309.7819 0064232 106.1698  69.0671 13.88349095615679
UNKNOWN                 
1 85246U          26018.29346370  .00000834  00000+0  31034-3 0  9994
2 85246  97.9873  23.3608 0222532 195.8815 163.5309 14.21626419628262
UNKNOWN                 
1 85373U          26019.06513294  .00001843  00000+0  12716-2 0  9998
2 85373 100.4271  65.3153 0051456 141.1502 249.8153 14.00175214617350
UNKNOWN                 
1 87014U          26018.43091947  .00002218  00000+0  34288-2 0  9993
2 87014 100.4868 349.7572 0043536 149.4963   3.9175 13.52046985595875
UNKNOWN                 
1 87029U          26008.31472458  .00001526  00000+0  95182-3 0  9997
2 87029  98.7547  47.6321 0083014 175.3683 184.8271 14.04563715596737
UNKNOWN                 
1 87042U          26019.08017265  .00000532  00000+0  34010-3 0  9998
2 87042  98.7100  65.9426 0042569 350.7800   9.2584 14.07176786559216
UNKNOWN                 
1 87051U          26018.68272768  .00002653  00000+0  93610-3 0  9991
2 87051  65.7284 166.2531 0711934 124.4947 242.5461 13.46036958593551
UNKNOWN                 
1 87054U          26019.51869517  .00001751  00000+0  99938-3 0  9998
2 87054 100.0929 268.5789 0012325 243.7579 116.2321 14.11240467621658
UNKNOWN                 
1 87071U          26018.67547127  .00005324  00000+0  19451-2 0  9994
2 87071  61.2203 162.0316 0473839 255.9711  98.8219 13.85926571607605
UNKNOWN                 
1 87129U          26017.50672465  .00000141  00000+0  13519-2 0  9994
2 87129 102.2596 113.9020 0027227  17.9847 342.2174 12.42832013551118
UNKNOWN                 
1 87159U          26019.56590580  .00000975  00000+0  11261-2 0  9999
2 87159  90.3473  70.7703 0107454 144.9081 215.9220 13.66161999561857
UNKNOWN                 
1 87163U          26014.77860173  .00000665  00000+0  22744-3 0  9995
2 87163  65.5990 154.8044 0643586  49.7952 315.7630 13.64097199582026
UNKNOWN                 
1 87164U          26014.33230143  .00001880  00000+0  39850-3 0  9992
2 87164  65.2023 233.0257 0101079  39.4010 321.4384 14.58786496640523
UNKNOWN                 
1 87204U          26017.55034871  .00001871  00000+0  74080-3 0  9998
2 87204  98.5350 242.6501 0044823 219.1566 140.6371 14.29530803630550
UNKNOWN                 
1 87211U          26017.79663776  .00003164  00000+0  87263-3 0  9998
2 87211  99.0861  25.1951 0053796  52.6542 123.8613 14.46753804712984
UNKNOWN                 
1 87214U          26018.25513049  .00000378  00000+0  37899-3 0  9994
2 87214 100.3310  25.5081 0071693 160.7408 199.6478 13.84135792605294
UNKNOWN                 
1 87237U          26017.64333964  .00000258  00000+0  22813-3 0  9994
2 87237  99.2517  78.0438 0103713 186.8403 326.0054 13.91790030616755
UNKNOWN                 
1 87239U          26019.36059610  .00009720  00000+0  23616-2 0  9994
2 87239  82.8721  50.8977 0017164 279.3933  80.5326 14.52686888633338
UNKNOWN                 
1 87245U          26019.52685470  .00004191  00000+0  88123-3 0  9990
2 87245  65.6415 306.7284 0427880 102.2531  71.1305 14.16107804619553
UNKNOWN                 
1 87271U          26019.39413362  .00004139  00000+0  77255-3 0  9999
2 87271  65.7552 135.0484 0419530  53.5717 310.3288 14.22109720617728
UNKNOWN                 
1 87280U          26018.75405036  .00000370  00000+0  69221-3 0  9994
2 87280  64.6151 143.8266 0128867 253.4906 105.1942 13.48587530538845
UNKNOWN                 
1 87293U          26019.46503042  .00010186  00000+0  19708-2 0  9993
2 87293  65.8966  44.9467 0428707 339.1745  19.2318 14.18455414619349
UNKNOWN                 
1 87300U          26013.67849296  .00001504  00000+0  10635-2 0  9997
2 87300 100.0900   4.3447 0026149 206.9129 153.0677 13.99567399617580
UNKNOWN                 
1 87304U          26019.34250516  .00001515  00000+0  22649-3 0  9993
2 87304  74.0159 247.3298 0018481 209.6952 150.3175 14.75592429652025
UNKNOWN                 
1 87320U          26019.18316796  .00002337  00000+0  14753-2 0  9995
2 87320  66.5949 354.9576 0417423  30.4857 331.9774 13.70179275598871
UNKNOWN                 
1 87334U          26019.66682088  .00018494  00000+0  10646-1 0  9990
2 87334  89.9971 271.6872 0055002 114.1905 246.5042 14.08303671391982
UNKNOWN                 
1 87335U          26019.66890177  .00016151  00000+0  91374-2 0  9997
2 87335  89.9843 267.9323 0076000  93.7635 267.2243 14.08566953392318
UNKNOWN                 
1 87405U          26018.75725718  .00001670  00000+0  11818-2 0  9997
2 87405  82.7477  30.9090 0056898 221.7705 137.9114 13.96514021616328
UNKNOWN                 
1 87426U          26018.02140814  .00003503  00000+0  13548-2 0  9997
2 87426  65.7819 236.1516 0068316 276.5926 234.3106 14.30048096627773
UNKNOWN                 
1 87448U          26016.54880986  .00000992  00000+0  82436-3 0  9999
2 87448 100.4529 232.3689 0062355 113.4564 247.3161 13.90714233614077
UNKNOWN                 
1 87456U          26015.32554653  .00008847  00000+0  12954-2 0  9996
2 87456  65.7772   1.8164 0511404 347.6390  11.2517 14.14042385616241
UNKNOWN                 
1 87517U          26019.08328198  .00003296  00000+0  91893-3 0  9997
2 87517  65.8252 141.8151 0675442 288.6584 258.2798 13.61499238597994
UNKNOWN                 
1 87541U          26010.42988520  .00000073  00000+0  22386-3 0  9995
2 87541  99.6994 227.9070 0059564 192.8657 291.0153 13.35601126585868
UNKNOWN                 
1 87553U          26019.21106174  .00001622  00000+0  51760-3 0  9990
2 87553  65.6678 265.1697 0696786 210.8891 144.9372 13.53666852596325
UNKNOWN                 
1 87557U          26019.34982183  .00004144  00000+0  90747-2 0  9999
2 87557 101.7460 244.7276 0081508 299.3537  59.9455 13.28128650570022
